[{"OBJECT_NAME":"ARIRANG-5 (KOMPSAT-5)","OBJECT_ID":"2013-042A","EPOCH":"2026-03-10T00:02:57.181344","MEAN_MOTION":15.04553599,"ECCENTRICITY":0.00039005,"INCLINATION":97.62,"RA_OF_ASC_NODE":257.0804,"ARG_OF_PERICENTER":111.6826,"MEAN_ANOMALY":248.4816,"EPHEMERIS_TYPE":0,"CLASSIFICATION_TYPE":"U","NORAD_CAT_ID":39227,"ELEMENT_SET_NO":999,"REV_AT_EPOCH":68894,"BSTAR":0.00023956705,"MEAN_MOTION_DOT":3.298e-5,"MEAN_MOTION_DDOT":0},{"OBJECT_NAME":"STARLINK-34985","OBJECT_ID":"2025-191A","EPOCH":"2026-03-09T14:33:28.683072","MEAN_MOTION":15.05636262,"ECCENTRICITY":0.0001733,"INCLINATION":97.602,"RA_OF_ASC_NODE":301.3915,"ARG_OF_PERICENTER":97.4218,"MEAN_ANOMALY":262.7205,"EPHEMERIS_TYPE":0,"CLASSIFICATION_TYPE":"U","NORAD_CAT_ID":65379,"ELEMENT_SET_NO":999,"REV_AT_EPOCH":3025,"BSTAR":0.00036085,"MEAN_MOTION_DOT":5.148e-5,"MEAN_MOTION_DDOT":0}]
